[{"OBJECT_NAME":"STARLINK-35982","OBJECT_ID":"2025-280H","EPOCH":"2026-03-09T21:27:09.755424","MEAN_MOTION":14.98311944,"ECCENTRICITY":0.00028949,"INCLINATION":70.0018,"RA_OF_ASC_NODE":334.0542,"ARG_OF_PERICENTER":276.8858,"MEAN_ANOMALY":83.1972,"EPHEMERIS_TYPE":0,"CLASSIFICATION_TYPE":"U","NORAD_CAT_ID":66828,"ELEMENT_SET_NO":999,"REV_AT_EPOCH":1610,"BSTAR":0.00020800012,"MEAN_MOTION_DOT":2.389e-5,"MEAN_MOTION_DDOT":0},{"OBJECT_NAME":"SL-16 DEB","OBJECT_ID":"1992-093HT","EPOCH":"2026-03-09T09:11:57.457824","MEAN_MOTION":14.90422202,"ECCENTRICITY":0.00468492,"INCLINATION":71.3296,"RA_OF_ASC_NODE":183.274,"ARG_OF_PERICENTER":9.9042,"MEAN_ANOMALY":350.3034,"EPHEMERIS_TYPE":0,"CLASSIFICATION_TYPE":"U","NORAD_CAT_ID":22571,"ELEMENT_SET_NO":999,"REV_AT_EPOCH":69043,"BSTAR":0.0054819504,"MEAN_MOTION_DOT":0.00054956,"MEAN_MOTION_DDOT":0}]
